[{"OBJECT_NAME":"ONEWEB-0081","OBJECT_ID":"2020-020F","EPOCH":"2026-03-09T21:18:42.458688","MEAN_MOTION":13.11417436,"ECCENTRICITY":0.00016241,"INCLINATION":87.8868,"RA_OF_ASC_NODE":40.809,"ARG_OF_PERICENTER":84.5037,"MEAN_ANOMALY":275.6276,"EPHEMERIS_TYPE":0,"CLASSIFICATION_TYPE":"U","NORAD_CAT_ID":45429,"ELEMENT_SET_NO":999,"REV_AT_EPOCH":28972,"BSTAR":0.00016000015,"MEAN_MOTION_DOT":6.9e-7,"MEAN_MOTION_DDOT":0},{"OBJECT_NAME":"COSMOS 1275 DEB","OBJECT_ID":"1981-053ML","EPOCH":"2026-03-09T03:45:44.654976","MEAN_MOTION":13.4331041,"ECCENTRICITY":0.01699711,"INCLINATION":82.895,"RA_OF_ASC_NODE":139.7955,"ARG_OF_PERICENTER":296.9814,"MEAN_ANOMALY":89.9811,"EPHEMERIS_TYPE":0,"CLASSIFICATION_TYPE":"U","NORAD_CAT_ID":20100,"ELEMENT_SET_NO":999,"REV_AT_EPOCH":84168,"BSTAR":0.00014430098,"MEAN_MOTION_DOT":1.02e-6,"MEAN_MOTION_DDOT":0}]
